start=new Date('2023-06-11T00:00:00.000Z').valueOf();
sats=[{"NORAD_CAT_ID":"47570","REF_FRAME":"TEME","TIME_SYSTEM":"UTC","REV_AT_EPOCH":"12991","DECAY_DATE":null,"CENTER_NAME":"EARTH","GP_ID":"233650612","EPHEMERIS_TYPE":"0","MEAN_ANOMALY":"265.9126","ARG_OF_PERICENTER":"94.1971","PERIOD":"95.592","ECCENTRICITY":"0.00009450","FILE":"3929969","SITE":"AFETR","MEAN_ELEMENT_THEORY":"SGP4","LAUNCH_DATE":"2021-02-04","OBJECT_TYPE":"PAYLOAD","TLE_LINE1":"1 47570U 21009Y   23161.77608425  .00001433  00000-0  11505-3 0  9993","RA_OF_ASC_NODE":"183.8715","ELEMENT_SET_NO":"999","SEMIMAJOR_AXIS":"6925.365","MEAN_MOTION_DOT":"0.00001433","COUNTRY_CODE":"US","APOAPSIS":"547.885","OBJECT_ID":"2021-009Y","CLASSIFICATION_TYPE":"U","TLE_LINE2":"2 47570  53.0534 183.8715 0000945  94.1971 265.9126 15.06394547129914","INCLINATION":"53.0534","EPOCH":"2023-06-10T18:37:33.679200","MEAN_MOTION_DDOT":"0.0000000000000","BSTAR":"0.00011505000000","RCS_SIZE":"LARGE","OBJECT_NAME":"STARLINK-1969","MEAN_MOTION":"15.06394547","PERIAPSIS":"546.576"},{"OBJECT_TYPE":"PAYLOAD","MEAN_ELEMENT_THEORY":"SGP4","LAUNCH_DATE":"2021-02-04","SITE":"AFETR","FILE":"3929969","ECCENTRICITY":"0.00008250","PERIOD":"95.593","ARG_OF_PERICENTER":"93.2388","MEAN_ANOMALY":"266.8695","EPHEMERIS_TYPE":"0","GP_ID":"233650864","CENTER_NAME":"EARTH","DECAY_DATE":null,"REV_AT_EPOCH":"12977","TIME_SYSTEM":"UTC","REF_FRAME":"TEME","NORAD_CAT_ID":"47571","MEAN_MOTION":"15.06391516","PERIAPSIS":"546.668","OBJECT_NAME":"STARLINK-1970","RCS_SIZE":"LARGE","BSTAR":"-0.00000031987000","MEAN_MOTION_DDOT":"0.0000000000000","EPOCH":"2023-06-10T18:52:09.453792","TLE_LINE2":"2 47571  53.0528 193.8267 0000825  93.2388 266.8695 15.06391516129778","INCLINATION":"53.0528","CLASSIFICATION_TYPE":"U","OBJECT_ID":"2021-009Z","APOAPSIS":"547.811","COUNTRY_CODE":"US","MEAN_MOTION_DOT":"-0.00000286","SEMIMAJOR_AXIS":"6925.375","ELEMENT_SET_NO":"999","RA_OF_ASC_NODE":"193.8267","TLE_LINE1":"1 47571U 21009Z   23161.78622053 -.00000286  00000-0 -31987-6 0  9994"},{"OBJECT_ID":"2021-009AA","EPOCH":"2023-06-10T12:03:27.239904","INCLINATION":"53.0524","TLE_LINE2":"2 47572  53.0524 195.1005 0000882  82.1289 277.9800 15.06394809129735","CLASSIFICATION_TYPE":"U","BSTAR":"0.00000944750000","MEAN_MOTION_DDOT":"0.0000000000000","MEAN_MOTION":"15.06394809","PERIAPSIS":"546.619","OBJECT_NAME":"STARLINK-1971","RCS_SIZE":"LARGE","RA_OF_ASC_NODE":"195.1005","TLE_LINE1":"1 47572U 21009AA  23161.50239861 -.00000141  00000-0  94475-5 0  9995","SEMIMAJOR_AXIS":"6925.364","ELEMENT_SET_NO":"999","APOAPSIS":"547.840","MEAN_MOTION_DOT":"-0.00000141","COUNTRY_CODE":"US","EPHEMERIS_TYPE":"0","ARG_OF_PERICENTER":"82.1289","MEAN_ANOMALY":"277.9800","ECCENTRICITY":"0.00008820","PERIOD":"95.592","OBJECT_TYPE":"PAYLOAD","LAUNCH_DATE":"2021-02-04","MEAN_ELEMENT_THEORY":"SGP4","SITE":"AFETR","FILE":"3929709","REF_FRAME":"TEME","NORAD_CAT_ID":"47572","REV_AT_EPOCH":"12973","TIME_SYSTEM":"UTC","CENTER_NAME":"EARTH","GP_ID":"233616792","DECAY_DATE":null},{"TLE_LINE2":"2 47573  53.0536 193.7133 0001033  89.4612 270.6495 15.06399624129778","INCLINATION":"53.0536","EPOCH":"2023-06-10T19:29:18.540960","CLASSIFICATION_TYPE":"U","OBJECT_ID":"2021-009AB","OBJECT_NAME":"STARLINK-1975","MEAN_MOTION":"15.06399624","PERIAPSIS":"546.499","RCS_SIZE":"LARGE","BSTAR":"0.00002925800000","MEAN_MOTION_DDOT":"0.0000000000000","TLE_LINE1":"1 47573U 21009AB  23161.81202015  .00000155  00000-0  29258-4 0  9991","RA_OF_ASC_NODE":"193.7133","APOAPSIS":"547.930","COUNTRY_CODE":"US","MEAN_MOTION_DOT":"0.00000155","SEMIMAJOR_AXIS":"6925.350","ELEMENT_SET_NO":"999","ARG_OF_PERICENTER":"89.4612","MEAN_ANOMALY":"270.6495","EPHEMERIS_TYPE":"0","MEAN_ELEMENT_THEORY":"SGP4","LAUNCH_DATE":"2021-02-04","OBJECT_TYPE":"PAYLOAD","FILE":"3929969","SITE":"AFETR","PERIOD":"95.592","ECCENTRICITY":"0.00010330","NORAD_CAT_ID":"47573","REF_FRAME":"TEME","GP_ID":"233649863","CENTER_NAME":"EARTH","DECAY_DATE":null,"TIME_SYSTEM":"UTC","REV_AT_EPOCH":"12977"},{"TLE_LINE1":"1 47574U 21009AC  23161.89403117  .00010059  00000-0  69330-3 0  9994","RA_OF_ASC_NODE":"223.3450","APOAPSIS":"547.669","COUNTRY_CODE":"US","MEAN_MOTION_DOT":"0.00010059","SEMIMAJOR_AXIS":"6925.365","ELEMENT_SET_NO":"999","INCLINATION":"53.0525","TLE_LINE2":"2 47574  53.0525 223.3450 0000633 101.5240 258.5820 15.06394474129367","EPOCH":"2023-06-10T21:27:24.293088","CLASSIFICATION_TYPE":"U","OBJECT_ID":"2021-009AC","OBJECT_NAME":"STARLINK-1976","PERIAPSIS":"546.792","MEAN_MOTION":"15.06394474","RCS_SIZE":"LARGE","BSTAR":"0.00069330000000","MEAN_MOTION_DDOT":"0.0000000000000","NORAD_CAT_ID":"47574","REF_FRAME":"TEME","GP_ID":"233650113","CENTER_NAME":"EARTH","DECAY_DATE":null,"TIME_SYSTEM":"UTC","REV_AT_EPOCH":"12936","ARG_OF_PERICENTER":"101.5240","MEAN_ANOMALY":"258.5820","EPHEMERIS_TYPE":"0","MEAN_ELEMENT_THEORY":"SGP4","LAUNCH_DATE":"2021-02-04","OBJECT_TYPE":"PAYLOAD","FILE":"3929969","SITE":"AFETR","PERIOD":"95.592","ECCENTRICITY":"0.00006330"},{"EPHEMERIS_TYPE":"0","ARG_OF_PERICENTER":"100.3784","MEAN_ANOMALY":"259.7295","PERIOD":"95.592","ECCENTRICITY":"0.00008020","LAUNCH_DATE":"2021-02-04","MEAN_ELEMENT_THEORY":"SGP4","OBJECT_TYPE":"PAYLOAD","FILE":"3929969","SITE":"AFETR","NORAD_CAT_ID":"47575","REF_FRAME":"TEME","TIME_SYSTEM":"UTC","REV_AT_EPOCH":"12936","GP_ID":"233651364","CENTER_NAME":"EARTH","DECAY_DATE":null,"OBJECT_ID":"2021-009AD","INCLINATION":"53.0527","TLE_LINE2":"2 47575  53.0527 223.3927 0000802 100.3784 259.7295 15.06397750129366","EPOCH":"2023-06-10T21:11:29.067648","CLASSIFICATION_TYPE":"U","BSTAR":"0.00078449000000","MEAN_MOTION_DDOT":"0.0000000000000","OBJECT_NAME":"STARLINK-1977","MEAN_MOTION":"15.06397750","PERIAPSIS":"546.665","RCS_SIZE":"LARGE","TLE_LINE1":"1 47575U 21009AD  23161.88297532  .00011422  00000-0  78449-3 0  9992","RA_OF_ASC_NODE":"223.3927","SEMIMAJOR_AXIS":"6925.355","ELEMENT_SET_NO":"999","APOAPSIS":"547.776","MEAN_MOTION_DOT":"0.00011422","COUNTRY_CODE":"US"},{"APOAPSIS":"547.982","COUNTRY_CODE":"US","MEAN_MOTION_DOT":"0.00000447","SEMIMAJOR_AXIS":"6925.353","ELEMENT_SET_NO":"999","TLE_LINE1":"1 47576U 21009AE  23161.78345448  .00000447  00000-0  48900-4 0  9997","RA_OF_ASC_NODE":"183.8346","OBJECT_NAME":"STARLINK-1978","MEAN_MOTION":"15.06398520","PERIAPSIS":"546.454","RCS_SIZE":"LARGE","BSTAR":"0.00004890000000","MEAN_MOTION_DDOT":"0.0000000000000","TLE_LINE2":"2 47576  53.0533 183.8346 0001103  94.9152 265.1962 15.06398520129910","INCLINATION":"53.0533","EPOCH":"2023-06-10T18:48:10.467072","CLASSIFICATION_TYPE":"U","OBJECT_ID":"2021-009AE","CENTER_NAME":"EARTH","GP_ID":"233651110","DECAY_DATE":null,"TIME_SYSTEM":"UTC","REV_AT_EPOCH":"12991","NORAD_CAT_ID":"47576","REF_FRAME":"TEME","MEAN_ELEMENT_THEORY":"SGP4","LAUNCH_DATE":"2021-02-04","OBJECT_TYPE":"PAYLOAD","FILE":"3929969","SITE":"AFETR","PERIOD":"95.592","ECCENTRICITY":"0.00011030","ARG_OF_PERICENTER":"94.9152","MEAN_ANOMALY":"265.1962","EPHEMERIS_TYPE":"0"},{"RCS_SIZE":"LARGE","MEAN_MOTION":"15.06394317","PERIAPSIS":"546.568","OBJECT_NAME":"STARLINK-1979","MEAN_MOTION_DDOT":"0.0000000000000","BSTAR":"0.00005120100000","CLASSIFICATION_TYPE":"U","EPOCH":"2023-06-10T19:47:13.401888","TLE_LINE2":"2 47577  53.0534 198.6522 0000958 110.1657 249.9435 15.06394317129713","INCLINATION":"53.0534","OBJECT_ID":"2021-009AF","COUNTRY_CODE":"US","MEAN_MOTION_DOT":"0.00000481","APOAPSIS":"547.894","ELEMENT_SET_NO":"999","SEMIMAJOR_AXIS":"6925.366","RA_OF_ASC_NODE":"198.6522","TLE_LINE1":"1 47577U 21009AF  23161.82446067  .00000481  00000-0  51201-4 0  9998","SITE":"AFETR","FILE":"3929969","OBJECT_TYPE":"PAYLOAD","MEAN_ELEMENT_THEORY":"SGP4","LAUNCH_DATE":"2021-02-04","ECCENTRICITY":"0.00009580","PERIOD":"95.593","MEAN_ANOMALY":"249.9435","ARG_OF_PERICENTER":"110.1657","EPHEMERIS_TYPE":"0","DECAY_DATE":null,"CENTER_NAME":"EARTH","GP_ID":"233650363","REV_AT_EPOCH":"12971","TIME_SYSTEM":"UTC","REF_FRAME":"TEME","NORAD_CAT_ID":"47577"},{"SEMIMAJOR_AXIS":"6925.356","ELEMENT_SET_NO":"999","APOAPSIS":"547.996","MEAN_MOTION_DOT":"0.00002835","COUNTRY_CODE":"US","TLE_LINE1":"1 47578U 21009AG  23161.81846662  .00002835  00000-0  20912-3 0  9992","RA_OF_ASC_NODE":"203.6841","BSTAR":"0.00020912000000","MEAN_MOTION_DDOT":"0.0000000000000","OBJECT_NAME":"STARLINK-1980","PERIAPSIS":"546.447","MEAN_MOTION":"15.06397491","RCS_SIZE":"LARGE","OBJECT_ID":"2021-009AG","TLE_LINE2":"2 47578  53.0531 203.6841 0001118 103.4979 256.6134 15.06397491129631","INCLINATION":"53.0531","EPOCH":"2023-06-10T19:38:35.515968","CLASSIFICATION_TYPE":"U","TIME_SYSTEM":"UTC","REV_AT_EPOCH":"12963","GP_ID":"233650613","CENTER_NAME":"EARTH","DECAY_DATE":null,"NORAD_CAT_ID":"47578","REF_FRAME":"TEME","PERIOD":"95.592","ECCENTRICITY":"0.00011180","LAUNCH_DATE":"2021-02-04","MEAN_ELEMENT_THEORY":"SGP4","OBJECT_TYPE":"PAYLOAD","FILE":"3929969","SITE":"AFETR","EPHEMERIS_TYPE":"0","ARG_OF_PERICENTER":"103.4979","MEAN_ANOMALY":"256.6134"},{"TLE_LINE1":"1 47579U 21009AH  23161.80096170  .00000691  00000-0  65246-4 0  9991","RA_OF_ASC_NODE":"193.7607","COUNTRY_CODE":"US","MEAN_MOTION_DOT":"0.00000691","APOAPSIS":"547.941","ELEMENT_SET_NO":"999","SEMIMAJOR_AXIS":"6925.358","CLASSIFICATION_TYPE":"U","INCLINATION":"53.0527","TLE_LINE2":"2 47579  53.0527 193.7607 0001037  87.5063 272.6044 15.06397044129779","EPOCH":"2023-06-10T19:13:23.090880","OBJECT_ID":"2021-009AH","RCS_SIZE":"LARGE","OBJECT_NAME":"STARLINK-1981","MEAN_MOTION":"15.06397044","PERIAPSIS":"546.504","MEAN_MOTION_DDOT":"0.0000000000000","BSTAR":"0.00006524600000","NORAD_CAT_ID":"47579","REF_FRAME":"TEME","DECAY_DATE":null,"CENTER_NAME":"EARTH","GP_ID":"233650865","TIME_SYSTEM":"UTC","REV_AT_EPOCH":"12977","MEAN_ANOMALY":"272.6044","ARG_OF_PERICENTER":"87.5063","EPHEMERIS_TYPE":"0","FILE":"3929969","SITE":"AFETR","LAUNCH_DATE":"2021-02-04","MEAN_ELEMENT_THEORY":"SGP4","OBJECT_TYPE":"PAYLOAD","PERIOD":"95.592","ECCENTRICITY":"0.00010370"}];
